SPACEMOBILE-008         
1 69589U 26139A   26194.23693319 -.00000117  00000+0  10367-4 0  9996
2 69589  52.9945 144.2981 0004990  51.8250 308.3190 15.12800584  3927
SPACEMOBILE-009         
1 69590U 26139B   26194.50303825 -.00000114  00000+0  10568-4 0  9998
2 69590  52.9937 143.1044 0005247  48.2682 311.8757 15.12694011  3961
SPACEMOBILE-010         
1 69591U 26139C   26194.24165291 -.00000028  00000+0  15486-4 0  9991
2 69591  52.9943 144.3248 0005157  39.4417 320.6949 15.12525408  3937
