OBJECT_NAME,OBJECT_ID,EPOCH,MEAN_MOTION,ECCENTRICITY,INCLINATION,RA_OF_ASC_NODE,ARG_OF_PERICENTER,MEAN_ANOMALY,EPHEMERIS_TYPE,CLASSIFICATION_TYPE,NORAD_CAT_ID,ELEMENT_SET_NO,REV_AT_EPOCH,BSTAR,MEAN_MOTION_DOT,MEAN_MOTION_DDOT
SPACEMOBILE-008,2026-139A,2026-07-13T05:41:11.027616,15.12800584,.000499,52.9945,144.2981,51.8250,308.3190,0,U,69589,999,392,.10367E-4,-.117E-5,0
SPACEMOBILE-009,2026-139B,2026-07-13T12:04:22.504800,15.12694011,.00052471,52.9937,143.1044,48.2682,311.8757,0,U,69590,999,396,.10567857E-4,-.114E-5,0
SPACEMOBILE-010,2026-139C,2026-07-13T05:47:58.811424,15.12525408,.0005157,52.9943,144.3248,39.4417,320.6949,0,U,69591,999,393,.15486E-4,-.28E-6,0
